STARLINK-35643          
1 66456U 25262A   26083.80006732  .00029496  00000+0  10760-2 0  9994
2 66456  43.0016 211.1613 0001349 274.1315  85.9383 15.27613636 21210
STARLINK-35466          
1 66457U 25262B   26083.72570467  .00021474  00000+0  78812-3 0  9998
2 66457  43.0018 211.4609 0000805 288.6114  71.4650 15.27558172 21203
STARLINK-35684          
1 66458U 25262C   26083.72827134  .00021542  00000+0  79044-3 0  9999
2 66458  43.0012 211.4819 0001176 283.3205  76.7516 15.27564097 21208
STARLINK-35449          
1 66459U 25262D   26083.71927894  .00023636  00000+0  86613-3 0  9999
2 66459  42.9992 211.4103 0000772 281.3576  78.7189 15.27563940 21204
STARLINK-35424          
1 66460U 25262E   26083.63461296  .00030235  00000+0  11034-2 0  9998
2 66460  42.9988 211.6321 0001159 254.6350 105.4373 15.27590268 21192
STARLINK-35132          
1 66461U 25262F   26083.63204111  .00021606  00000+0  79263-3 0  9991
2 66461  42.9974 211.6115 0001008 270.6633  89.4103 15.27569322 21193
STARLINK-35499          
1 66462U 25262G   26083.81920796  .00026182  00000+0  95724-3 0  9990
2 66462  43.0011 210.4391 0001907 267.5526  92.5107 15.27591309 21228
STARLINK-35463          
1 66463U 25262H   26083.71670869  .00019602  00000+0  72040-3 0  9998
2 66463  42.9992 211.3868 0000926 298.1143  61.9615 15.27559151 21200
STARLINK-35435          
1 66464U 25262J   26083.74482449  .00024515  00000+0  89753-3 0  9995
2 66464  43.0013 210.7348 0002206 254.5184 105.5424 15.27574377 21218
STARLINK-35448          
1 66465U 25262K   26083.66159693  .00034954  00000+0  12730-2 0  9997
2 66465  43.0035 211.8356 0001378 280.6794  79.3903 15.27598290 21197
STARLINK-35388          
1 66466U 25262L   26083.82434892  .00028175  00000+0  10292-2 0  9992
2 66466  42.9998 210.4740 0001442 269.2673  90.8013 15.27588318 21221
STARLINK-35682          
1 66467U 25262M   26083.74369230  .00029116  00000+0  10633-2 0  9992
2 66467  43.0023 211.5982 0001332 265.5079  94.5620 15.27584238 21200
STARLINK-35331          
1 66468U 25262N   26083.73598167  .00023139  00000+0  84793-3 0  9993
2 66468  43.0034 211.5313 0001384 262.2625  97.8069 15.27573169 21203
STARLINK-35451          
1 66469U 25262P   26083.74996534  .00020907  00000+0  76703-3 0  9997
2 66469  43.0013 210.7756 0001314 258.4010 101.6694 15.27583417 21217
STARLINK-35655          
1 66470U 25262Q   26083.71799482  .00024537  00000+0  89863-3 0  9993
2 66470  42.9967 211.3940 0000393 252.9223 107.1586 15.27564902 21206
STARLINK-35569          
1 66471U 25262R   26083.70259052  .00029155  00000+0  10654-2 0  9999
2 66471  42.9992 211.2767 0001200 288.0543  72.0178 15.27561454 21200
