[{"OBJECT_NAME":"STARLINK-35643","OBJECT_ID":"2025-262A","EPOCH":"2026-03-24T19:12:05.816448","MEAN_MOTION":15.27613636,"ECCENTRICITY":0.00013493,"INCLINATION":43.0016,"RA_OF_ASC_NODE":211.1613,"ARG_OF_PERICENTER":274.1315,"MEAN_ANOMALY":85.9383,"EPHEMERIS_TYPE":0,"CLASSIFICATION_TYPE":"U","NORAD_CAT_ID":66456,"ELEMENT_SET_NO":999,"REV_AT_EPOCH":2121,"BSTAR":0.0010760158,"MEAN_MOTION_DOT":0.00029496,"MEAN_MOTION_DDOT":0},{"OBJECT_NAME":"STARLINK-35466","OBJECT_ID":"2025-262B","EPOCH":"2026-03-24T17:25:00.883488","MEAN_MOTION":15.27558172,"ECCENTRICITY":8.059e-5,"INCLINATION":43.0018,"RA_OF_ASC_NODE":211.4609,"ARG_OF_PERICENTER":288.6114,"MEAN_ANOMALY":71.465,"EPHEMERIS_TYPE":0,"CLASSIFICATION_TYPE":"U","NORAD_CAT_ID":66457,"ELEMENT_SET_NO":999,"REV_AT_EPOCH":2120,"BSTAR":0.0007881159,"MEAN_MOTION_DOT":0.00021474,"MEAN_MOTION_DDOT":0},{"OBJECT_NAME":"STARLINK-35684","OBJECT_ID":"2025-262C","EPOCH":"2026-03-24T17:28:42.643776","MEAN_MOTION":15.27564097,"ECCENTRICITY":0.00011763,"INCLINATION":43.0012,"RA_OF_ASC_NODE":211.4819,"ARG_OF_PERICENTER":283.3205,"MEAN_ANOMALY":76.7516,"EPHEMERIS_TYPE":0,"CLASSIFICATION_TYPE":"U","NORAD_CAT_ID":66458,"ELEMENT_SET_NO":999,"REV_AT_EPOCH":2120,"BSTAR":0.00079044235,"MEAN_MOTION_DOT":0.00021542,"MEAN_MOTION_DDOT":0},{"OBJECT_NAME":"STARLINK-35449","OBJECT_ID":"2025-262D","EPOCH":"2026-03-24T17:15:45.700416","MEAN_MOTION":15.2756394,"ECCENTRICITY":7.72e-5,"INCLINATION":42.9992,"RA_OF_ASC_NODE":211.4103,"ARG_OF_PERICENTER":281.3576,"MEAN_ANOMALY":78.7189,"EPHEMERIS_TYPE":0,"CLASSIFICATION_TYPE":"U","NORAD_CAT_ID":66459,"ELEMENT_SET_NO":999,"REV_AT_EPOCH":2120,"BSTAR":0.00086612585,"MEAN_MOTION_DOT":0.00023636,"MEAN_MOTION_DDOT":0},{"OBJECT_NAME":"STARLINK-35424","OBJECT_ID":"2025-262E","EPOCH":"2026-03-24T15:13:50.559744","MEAN_MOTION":15.27590268,"ECCENTRICITY":0.00011599,"INCLINATION":42.9988,"RA_OF_ASC_NODE":211.6321,"ARG_OF_PERICENTER":254.635,"MEAN_ANOMALY":105.4373,"EPHEMERIS_TYPE":0,"CLASSIFICATION_TYPE":"U","NORAD_CAT_ID":66460,"ELEMENT_SET_NO":999,"REV_AT_EPOCH":2119,"BSTAR":0.0011033821,"MEAN_MOTION_DOT":0.00030235,"MEAN_MOTION_DDOT":0},{"OBJECT_NAME":"STARLINK-35132","OBJECT_ID":"2025-262F","EPOCH":"2026-03-24T15:10:08.351904","MEAN_MOTION":15.27569322,"ECCENTRICITY":0.00010089,"INCLINATION":42.9974,"RA_OF_ASC_NODE":211.6115,"ARG_OF_PERICENTER":270.6633,"MEAN_ANOMALY":89.4103,"EPHEMERIS_TYPE":0,"CLASSIFICATION_TYPE":"U","NORAD_CAT_ID":66461,"ELEMENT_SET_NO":999,"REV_AT_EPOCH":2119,"BSTAR":0.00079263181,"MEAN_MOTION_DOT":0.00021606,"MEAN_MOTION_DDOT":0},{"OBJECT_NAME":"STARLINK-35499","OBJECT_ID":"2025-262G","EPOCH":"2026-03-24T19:39:39.567744","MEAN_MOTION":15.27591309,"ECCENTRICITY":0.00019079,"INCLINATION":43.0011,"RA_OF_ASC_NODE":210.4391,"ARG_OF_PERICENTER":267.5526,"MEAN_ANOMALY":92.5107,"EPHEMERIS_TYPE":0,"CLASSIFICATION_TYPE":"U","NORAD_CAT_ID":66462,"ELEMENT_SET_NO":999,"REV_AT_EPOCH":2122,"BSTAR":0.0009572362,"MEAN_MOTION_DOT":0.00026182,"MEAN_MOTION_DDOT":0},{"OBJECT_NAME":"STARLINK-35463","OBJECT_ID":"2025-262H","EPOCH":"2026-03-24T17:12:03.630816","MEAN_MOTION":15.27559151,"ECCENTRICITY":9.261e-5,"INCLINATION":42.9992,"RA_OF_ASC_NODE":211.3868,"ARG_OF_PERICENTER":298.1143,"MEAN_ANOMALY":61.9615,"EPHEMERIS_TYPE":0,"CLASSIFICATION_TYPE":"U","NORAD_CAT_ID":66463,"ELEMENT_SET_NO":999,"REV_AT_EPOCH":2120,"BSTAR":0.00072039894,"MEAN_MOTION_DOT":0.00019602,"MEAN_MOTION_DDOT":0},{"OBJECT_NAME":"STARLINK-35435","OBJECT_ID":"2025-262J","EPOCH":"2026-03-24T17:52:32.835936","MEAN_MOTION":15.27574377,"ECCENTRICITY":0.00022064,"INCLINATION":43.0013,"RA_OF_ASC_NODE":210.7348,"ARG_OF_PERICENTER":254.5184,"MEAN_ANOMALY":105.5424,"EPHEMERIS_TYPE":0,"CLASSIFICATION_TYPE":"U","NORAD_CAT_ID":66464,"ELEMENT_SET_NO":999,"REV_AT_EPOCH":2121,"BSTAR":0.00089753108,"MEAN_MOTION_DOT":0.00024515,"MEAN_MOTION_DDOT":0},{"OBJECT_NAME":"STARLINK-35448","OBJECT_ID":"2025-262K","EPOCH":"2026-03-24T15:52:41.974752","MEAN_MOTION":15.2759829,"ECCENTRICITY":0.00013782,"INCLINATION":43.0035,"RA_OF_ASC_NODE":211.8356,"ARG_OF_PERICENTER":280.6794,"MEAN_ANOMALY":79.3903,"EPHEMERIS_TYPE":0,"CLASSIFICATION_TYPE":"U","NORAD_CAT_ID":66465,"ELEMENT_SET_NO":999,"REV_AT_EPOCH":2119,"BSTAR":0.0012730076,"MEAN_MOTION_DOT":0.00034954,"MEAN_MOTION_DDOT":0},{"OBJECT_NAME":"STARLINK-35388","OBJECT_ID":"2025-262L","EPOCH":"2026-03-24T19:47:03.746688","MEAN_MOTION":15.27588318,"ECCENTRICITY":0.00014422,"INCLINATION":42.9998,"RA_OF_ASC_NODE":210.474,"ARG_OF_PERICENTER":269.2673,"MEAN_ANOMALY":90.8013,"EPHEMERIS_TYPE":0,"CLASSIFICATION_TYPE":"U","NORAD_CAT_ID":66466,"ELEMENT_SET_NO":999,"REV_AT_EPOCH":2122,"BSTAR":0.0010292018,"MEAN_MOTION_DOT":0.00028175,"MEAN_MOTION_DDOT":0},{"OBJECT_NAME":"STARLINK-35682","OBJECT_ID":"2025-262M","EPOCH":"2026-03-24T17:50:55.014720","MEAN_MOTION":15.27584238,"ECCENTRICITY":0.00013326,"INCLINATION":43.0023,"RA_OF_ASC_NODE":211.5982,"ARG_OF_PERICENTER":265.5079,"MEAN_ANOMALY":94.562,"EPHEMERIS_TYPE":0,"CLASSIFICATION_TYPE":"U","NORAD_CAT_ID":66467,"ELEMENT_SET_NO":999,"REV_AT_EPOCH":2120,"BSTAR":0.0010632546,"MEAN_MOTION_DOT":0.00029116,"MEAN_MOTION_DDOT":0},{"OBJECT_NAME":"STARLINK-35331","OBJECT_ID":"2025-262N","EPOCH":"2026-03-24T17:39:48.816288","MEAN_MOTION":15.27573169,"ECCENTRICITY":0.00013847,"INCLINATION":43.0034,"RA_OF_ASC_NODE":211.5313,"ARG_OF_PERICENTER":262.2625,"MEAN_ANOMALY":97.8069,"EPHEMERIS_TYPE":0,"CLASSIFICATION_TYPE":"U","NORAD_CAT_ID":66468,"ELEMENT_SET_NO":999,"REV_AT_EPOCH":2120,"BSTAR":0.00084792596,"MEAN_MOTION_DOT":0.00023139,"MEAN_MOTION_DDOT":0},{"OBJECT_NAME":"STARLINK-35451","OBJECT_ID":"2025-262P","EPOCH":"2026-03-24T17:59:57.005376","MEAN_MOTION":15.27583417,"ECCENTRICITY":0.00013143,"INCLINATION":43.0013,"RA_OF_ASC_NODE":210.7756,"ARG_OF_PERICENTER":258.401,"MEAN_ANOMALY":101.6694,"EPHEMERIS_TYPE":0,"CLASSIFICATION_TYPE":"U","NORAD_CAT_ID":66469,"ELEMENT_SET_NO":999,"REV_AT_EPOCH":2121,"BSTAR":0.00076703334,"MEAN_MOTION_DOT":0.00020907,"MEAN_MOTION_DDOT":0},{"OBJECT_NAME":"STARLINK-35655","OBJECT_ID":"2025-262Q","EPOCH":"2026-03-24T17:13:54.752448","MEAN_MOTION":15.27564902,"ECCENTRICITY":3.934e-5,"INCLINATION":42.9967,"RA_OF_ASC_NODE":211.394,"ARG_OF_PERICENTER":252.9223,"MEAN_ANOMALY":107.1586,"EPHEMERIS_TYPE":0,"CLASSIFICATION_TYPE":"U","NORAD_CAT_ID":66470,"ELEMENT_SET_NO":999,"REV_AT_EPOCH":2120,"BSTAR":0.00089863226,"MEAN_MOTION_DOT":0.00024537,"MEAN_MOTION_DDOT":0},{"OBJECT_NAME":"STARLINK-35569","OBJECT_ID":"2025-262R","EPOCH":"2026-03-24T16:51:43.820928","MEAN_MOTION":15.27561454,"ECCENTRICITY":0.00012001,"INCLINATION":42.9992,"RA_OF_ASC_NODE":211.2767,"ARG_OF_PERICENTER":288.0543,"MEAN_ANOMALY":72.0178,"EPHEMERIS_TYPE":0,"CLASSIFICATION_TYPE":"U","NORAD_CAT_ID":66471,"ELEMENT_SET_NO":999,"REV_AT_EPOCH":2120,"BSTAR":0.0010653967,"MEAN_MOTION_DOT":0.00029155,"MEAN_MOTION_DDOT":0}]
